start=new Date('2023-02-27T00:00:00.000Z').valueOf();
sats=[{"MEAN_MOTION_DOT":"0.00021542","OBJECT_NAME":"STARLINK-4145","COUNTRY_CODE":"US","ECCENTRICITY":"0.00012120","MEAN_MOTION":"15.08875679","GP_ID":"227067758","INCLINATION":"53.2118","MEAN_ANOMALY":"264.9977","SITE":"AFETR","ARG_OF_PERICENTER":"95.1154","RA_OF_ASC_NODE":"104.0390","ELEMENT_SET_NO":"999","REF_FRAME":"TEME","RCS_SIZE":"LARGE","SEMIMAJOR_AXIS":"6917.771","EPOCH":"2023-02-26T14:24:57.301344","REV_AT_EPOCH":"3408","PERIOD":"95.435","EPHEMERIS_TYPE":"0","PERIAPSIS":"538.798","TLE_LINE2":"2 53137  53.2118 104.0390 0001212  95.1154 264.9977 15.08875679 34084","BSTAR":"0.00136610000000","FILE":"3843368","MEAN_MOTION_DDOT":"0.0000000000000","NORAD_CAT_ID":"53137","MEAN_ELEMENT_THEORY":"SGP4","TIME_SYSTEM":"UTC","OBJECT_ID":"2022-083F","APOAPSIS":"540.475","CLASSIFICATION_TYPE":"U","OBJECT_TYPE":"PAYLOAD","CENTER_NAME":"EARTH","TLE_LINE1":"1 53137U 22083F   23057.60066321  .00021542  00000-0  13661-2 0  9998","LAUNCH_DATE":"2022-07-17","DECAY_DATE":null},{"MEAN_ELEMENT_THEORY":"SGP4","TIME_SYSTEM":"UTC","NORAD_CAT_ID":"53138","OBJECT_ID":"2022-083G","MEAN_MOTION_DDOT":"0.0000000000000","FILE":"3843368","BSTAR":"0.00029246000000","TLE_LINE2":"2 53138  53.2167  97.9323 0001138 100.2643 259.8477 15.08850423 34968","TLE_LINE1":"1 53138U 22083G   23057.84680282  .00004371  00000-0  29246-3 0  9991","DECAY_DATE":null,"LAUNCH_DATE":"2022-07-17","CLASSIFICATION_TYPE":"U","APOAPSIS":"540.501","CENTER_NAME":"EARTH","OBJECT_TYPE":"PAYLOAD","SITE":"AFETR","ARG_OF_PERICENTER":"100.2643","RA_OF_ASC_NODE":"97.9323","ELEMENT_SET_NO":"999","INCLINATION":"53.2167","MEAN_ANOMALY":"259.8477","ECCENTRICITY":"0.00011380","COUNTRY_CODE":"US","MEAN_MOTION_DOT":"0.00004371","OBJECT_NAME":"STARLINK-4141","GP_ID":"227068009","MEAN_MOTION":"15.08850423","PERIOD":"95.437","PERIAPSIS":"538.926","EPHEMERIS_TYPE":"0","EPOCH":"2023-02-26T20:19:23.763648","SEMIMAJOR_AXIS":"6917.849","RCS_SIZE":"LARGE","REF_FRAME":"TEME","REV_AT_EPOCH":"3496"},{"LAUNCH_DATE":"2022-07-17","DECAY_DATE":null,"TLE_LINE1":"1 53139U 22083H   23057.85458929  .00006672  00000-0  43676-3 0  9993","OBJECT_TYPE":"PAYLOAD","CENTER_NAME":"EARTH","CLASSIFICATION_TYPE":"U","APOAPSIS":"540.679","OBJECT_ID":"2022-083H","NORAD_CAT_ID":"53139","MEAN_ELEMENT_THEORY":"SGP4","TIME_SYSTEM":"UTC","TLE_LINE2":"2 53139  53.2151 102.8958 0001391  79.1322 280.9827 15.08849318 34124","BSTAR":"0.00043676000000","FILE":"3843368","MEAN_MOTION_DDOT":"0.0000000000000","EPHEMERIS_TYPE":"0","PERIAPSIS":"538.755","PERIOD":"95.437","REV_AT_EPOCH":"3412","REF_FRAME":"TEME","EPOCH":"2023-02-26T20:30:36.514656","SEMIMAJOR_AXIS":"6917.852","RCS_SIZE":"LARGE","INCLINATION":"53.2151","MEAN_ANOMALY":"280.9827","ARG_OF_PERICENTER":"79.1322","SITE":"AFETR","RA_OF_ASC_NODE":"102.8958","ELEMENT_SET_NO":"999","MEAN_MOTION":"15.08849318","GP_ID":"227068228","MEAN_MOTION_DOT":"0.00006672","OBJECT_NAME":"STARLINK-4185","COUNTRY_CODE":"US","ECCENTRICITY":"0.00013910"},{"REV_AT_EPOCH":"3412","SEMIMAJOR_AXIS":"6917.879","RCS_SIZE":"LARGE","EPOCH":"2023-02-26T20:35:54.550464","REF_FRAME":"TEME","PERIAPSIS":"538.771","EPHEMERIS_TYPE":"0","PERIOD":"95.438","GP_ID":"227066507","MEAN_MOTION":"15.08840496","ECCENTRICITY":"0.00014070","COUNTRY_CODE":"US","OBJECT_NAME":"STARLINK-4170","MEAN_MOTION_DOT":"0.00001011","ELEMENT_SET_NO":"999","SITE":"AFETR","RA_OF_ASC_NODE":"102.8785","ARG_OF_PERICENTER":"85.9096","INCLINATION":"53.2159","MEAN_ANOMALY":"274.2056","CENTER_NAME":"EARTH","OBJECT_TYPE":"PAYLOAD","APOAPSIS":"540.717","CLASSIFICATION_TYPE":"U","DECAY_DATE":null,"LAUNCH_DATE":"2022-07-17","TLE_LINE1":"1 53140U 22083J   23057.85827026  .00001011  00000-0  81600-4 0  9995","FILE":"3843368","MEAN_MOTION_DDOT":"0.0000000000000","TLE_LINE2":"2 53140  53.2159 102.8785 0001407  85.9096 274.2056 15.08840496 34121","BSTAR":"0.00008160000000","OBJECT_ID":"2022-083J","TIME_SYSTEM":"UTC","MEAN_ELEMENT_THEORY":"SGP4","NORAD_CAT_ID":"53140"},{"PERIOD":"95.437","PERIAPSIS":"539.299","EPHEMERIS_TYPE":"0","RCS_SIZE":"LARGE","SEMIMAJOR_AXIS":"6917.841","EPOCH":"2023-02-26T20:09:24.010272","REF_FRAME":"TEME","REV_AT_EPOCH":"3412","SITE":"AFETR","ARG_OF_PERICENTER":"232.7339","RA_OF_ASC_NODE":"102.9602","ELEMENT_SET_NO":"999","INCLINATION":"53.2157","MEAN_ANOMALY":"127.3600","ECCENTRICITY":"0.00005880","COUNTRY_CODE":"US","OBJECT_NAME":"STARLINK-4103","MEAN_MOTION_DOT":"0.00001361","GP_ID":"227067258","MEAN_MOTION":"15.08852825","TLE_LINE1":"1 53141U 22083K   23057.83986123  .00001361  00000-0  10355-3 0  9994","DECAY_DATE":null,"LAUNCH_DATE":"2022-07-17","APOAPSIS":"540.113","CLASSIFICATION_TYPE":"U","CENTER_NAME":"EARTH","OBJECT_TYPE":"PAYLOAD","TIME_SYSTEM":"UTC","MEAN_ELEMENT_THEORY":"SGP4","NORAD_CAT_ID":"53141","OBJECT_ID":"2022-083K","FILE":"3843368","MEAN_MOTION_DDOT":"0.0000000000000","TLE_LINE2":"2 53141  53.2157 102.9602 0000588 232.7339 127.3600 15.08852825 34122","BSTAR":"0.00010355000000"},{"PERIAPSIS":"539.214","EPHEMERIS_TYPE":"0","PERIOD":"95.438","REV_AT_EPOCH":"3413","EPOCH":"2023-02-26T20:25:18.413184","SEMIMAJOR_AXIS":"6917.900","RCS_SIZE":"LARGE","REF_FRAME":"TEME","RA_OF_ASC_NODE":"102.9146","SITE":"AFETR","ARG_OF_PERICENTER":"77.6769","ELEMENT_SET_NO":"999","MEAN_ANOMALY":"282.4313","INCLINATION":"53.2137","GP_ID":"227067509","MEAN_MOTION":"15.08833431","ECCENTRICITY":"0.00007970","COUNTRY_CODE":"US","MEAN_MOTION_DOT":"-0.00006082","OBJECT_NAME":"STARLINK-4101","DECAY_DATE":null,"LAUNCH_DATE":"2022-07-17","TLE_LINE1":"1 53142U 22083L   23057.85090756 -.00006082  00000-0 -36442-3 0  9997","CENTER_NAME":"EARTH","OBJECT_TYPE":"PAYLOAD","CLASSIFICATION_TYPE":"U","APOAPSIS":"540.317","OBJECT_ID":"2022-083L","MEAN_ELEMENT_THEORY":"SGP4","TIME_SYSTEM":"UTC","NORAD_CAT_ID":"53142","MEAN_MOTION_DDOT":"0.0000000000000","FILE":"3843368","BSTAR":"-0.00036442000000","TLE_LINE2":"2 53142  53.2137 102.9146 0000797  77.6769 282.4313 15.08833431 34136"},{"MEAN_MOTION_DDOT":"0.0000000000000","FILE":"3843368","BSTAR":"-0.00018331000000","TLE_LINE2":"2 53143  53.2155 102.9795 0000780 104.0390 256.0689 15.08844675 34128","OBJECT_ID":"2022-083M","MEAN_ELEMENT_THEORY":"SGP4","TIME_SYSTEM":"UTC","NORAD_CAT_ID":"53143","CENTER_NAME":"EARTH","OBJECT_TYPE":"PAYLOAD","CLASSIFICATION_TYPE":"U","APOAPSIS":"540.271","DECAY_DATE":null,"LAUNCH_DATE":"2022-07-17","TLE_LINE1":"1 53143U 22083M   23057.83618566 -.00003204  00000-0 -18331-3 0  9991","GP_ID":"227067729","MEAN_MOTION":"15.08844675","COUNTRY_CODE":"US","ECCENTRICITY":"0.00007800","MEAN_MOTION_DOT":"-0.00003204","OBJECT_NAME":"STARLINK-4102","SITE":"AFETR","RA_OF_ASC_NODE":"102.9795","ELEMENT_SET_NO":"999","ARG_OF_PERICENTER":"104.0390","INCLINATION":"53.2155","MEAN_ANOMALY":"256.0689","REV_AT_EPOCH":"3412","EPOCH":"2023-02-26T20:04:06.441024","SEMIMAJOR_AXIS":"6917.866","RCS_SIZE":"LARGE","REF_FRAME":"TEME","PERIAPSIS":"539.192","EPHEMERIS_TYPE":"0","PERIOD":"95.437"},{"INCLINATION":"53.2137","MEAN_ANOMALY":"265.1810","ARG_OF_PERICENTER":"94.9383","SITE":"AFETR","RA_OF_ASC_NODE":"102.9304","ELEMENT_SET_NO":"999","MEAN_MOTION":"15.08836618","GP_ID":"227067008","OBJECT_NAME":"STARLINK-4100","MEAN_MOTION_DOT":"-0.00007650","COUNTRY_CODE":"US","ECCENTRICITY":"0.00017610","EPHEMERIS_TYPE":"0","PERIAPSIS":"538.537","PERIOD":"95.438","REV_AT_EPOCH":"3412","REF_FRAME":"TEME","EPOCH":"2023-02-26T20:20:00.589920","SEMIMAJOR_AXIS":"6917.891","RCS_SIZE":"LARGE","OBJECT_ID":"2022-083N","NORAD_CAT_ID":"53144","TIME_SYSTEM":"UTC","MEAN_ELEMENT_THEORY":"SGP4","BSTAR":"-0.00046308000000","TLE_LINE2":"2 53144  53.2137 102.9304 0001761  94.9383 265.1810 15.08836618 34129","MEAN_MOTION_DDOT":"0.0000000000000","FILE":"3843368","LAUNCH_DATE":"2022-07-17","DECAY_DATE":null,"TLE_LINE1":"1 53144U 22083N   23057.84722905 -.00007650  00000-0 -46308-3 0  9990","OBJECT_TYPE":"PAYLOAD","CENTER_NAME":"EARTH","CLASSIFICATION_TYPE":"U","APOAPSIS":"540.974"},{"DECAY_DATE":null,"LAUNCH_DATE":"2022-07-17","TLE_LINE1":"1 53145U 22083P   23057.82882819  .00008195  00000-0  53219-3 0  9992","CENTER_NAME":"EARTH","OBJECT_TYPE":"PAYLOAD","APOAPSIS":"540.799","CLASSIFICATION_TYPE":"U","OBJECT_ID":"2022-083P","TIME_SYSTEM":"UTC","MEAN_ELEMENT_THEORY":"SGP4","NORAD_CAT_ID":"53145","MEAN_MOTION_DDOT":"0.0000000000000","FILE":"3843368","BSTAR":"0.00053219000000","TLE_LINE2":"2 53145  53.2170 103.0136 0001586  82.9535 277.1637 15.08854354 34120","PERIAPSIS":"538.604","EPHEMERIS_TYPE":"0","PERIOD":"95.437","REV_AT_EPOCH":"3412","RCS_SIZE":"MEDIUM","SEMIMAJOR_AXIS":"6917.837","EPOCH":"2023-02-26T19:53:30.755616","REF_FRAME":"TEME","RA_OF_ASC_NODE":"103.0136","SITE":"AFETR","ARG_OF_PERICENTER":"82.9535","ELEMENT_SET_NO":"999","INCLINATION":"53.2170","MEAN_ANOMALY":"277.1637","GP_ID":"227067759","MEAN_MOTION":"15.08854354","COUNTRY_CODE":"US","ECCENTRICITY":"0.00015860","OBJECT_NAME":"STARLINK-4106","MEAN_MOTION_DOT":"0.00008195"},{"MEAN_ELEMENT_THEORY":"SGP4","TIME_SYSTEM":"UTC","NORAD_CAT_ID":"53146","OBJECT_ID":"2022-083Q","FILE":"3843368","MEAN_MOTION_DDOT":"0.0000000000000","TLE_LINE2":"2 53146  53.2145 102.9488 0001304  84.4663 275.6478 15.08836969 34126","BSTAR":"-0.00008528600000","TLE_LINE1":"1 53146U 22083Q   23057.84355151 -.00001645  00000-0 -85286-4 0  9994","DECAY_DATE":null,"LAUNCH_DATE":"2022-07-17","APOAPSIS":"540.657","CLASSIFICATION_TYPE":"U","CENTER_NAME":"EARTH","OBJECT_TYPE":"PAYLOAD","SITE":"AFETR","RA_OF_ASC_NODE":"102.9488","ELEMENT_SET_NO":"999","ARG_OF_PERICENTER":"84.4663","INCLINATION":"53.2145","MEAN_ANOMALY":"275.6478","ECCENTRICITY":"0.00013040","COUNTRY_CODE":"US","OBJECT_NAME":"STARLINK-4099","MEAN_MOTION_DOT":"-0.00001645","GP_ID":"227068010","MEAN_MOTION":"15.08836969","PERIOD":"95.438","PERIAPSIS":"538.853","EPHEMERIS_TYPE":"0","RCS_SIZE":"LARGE","SEMIMAJOR_AXIS":"6917.890","EPOCH":"2023-02-26T20:14:42.850464","REF_FRAME":"TEME","REV_AT_EPOCH":"3412"}];
